[
  {
    "OBJECT_NAME": "CYGFM02",
    "OBJECT_ID": "2016-078C",
    "EPOCH": "2025-04-21T10:27:56.722752",
    "MEAN_MOTION": 15.41724545,
    "ECCENTRICITY": 0.0010878,
    "INCLINATION": 34.9444,
    "RA_OF_ASC_NODE": 113.6009,
    "ARG_OF_PERICENTER": 174.1818,
    "MEAN_ANOMALY": 185.9029,
    "EPHEMERIS_TYPE": 0,
    "CLASSIFICATION_TYPE": "U",
    "NORAD_CAT_ID": 41886,
    "ELEMENT_SET_NO": 999,
    "REV_AT_EPOCH": 46363,
    "BSTAR": 0.00052379,
    "MEAN_MOTION_DOT": 0.00022836,
    "MEAN_MOTION_DDOT": 0
  },
  {
    "OBJECT_NAME": "CYGFM01",
    "OBJECT_ID": "2016-078D",
    "EPOCH": "2025-04-22T03:52:29.947872",
    "MEAN_MOTION": 15.39566369,
    "ECCENTRICITY": 0.0009099,
    "INCLINATION": 34.9437,
    "RA_OF_ASC_NODE": 131.913,
    "ARG_OF_PERICENTER": 153.4706,
    "MEAN_ANOMALY": 206.648,
    "EPHEMERIS_TYPE": 0,
    "CLASSIFICATION_TYPE": "U",
    "NORAD_CAT_ID": 41887,
    "ELEMENT_SET_NO": 999,
    "REV_AT_EPOCH": 46356,
    "BSTAR": 0.00052181,
    "MEAN_MOTION_DOT": 0.00021154,
    "MEAN_MOTION_DDOT": 0
  },
  {
    "OBJECT_NAME": "CYGFM08",
    "OBJECT_ID": "2016-078E",
    "EPOCH": "2025-04-21T11:04:57.307296",
    "MEAN_MOTION": 15.40372436,
    "ECCENTRICITY": 0.0011407,
    "INCLINATION": 34.9465,
    "RA_OF_ASC_NODE": 121.6647,
    "ARG_OF_PERICENTER": 169.4169,
    "MEAN_ANOMALY": 190.6792,
    "EPHEMERIS_TYPE": 0,
    "CLASSIFICATION_TYPE": "U",
    "NORAD_CAT_ID": 41888,
    "ELEMENT_SET_NO": 999,
    "REV_AT_EPOCH": 46354,
    "BSTAR": 0.00051505,
    "MEAN_MOTION_DOT": 0.00021463,
    "MEAN_MOTION_DDOT": 0
  },
  {
    "OBJECT_NAME": "CYGFM07",
    "OBJECT_ID": "2016-078G",
    "EPOCH": "2025-04-21T10:09:03.919392",
    "MEAN_MOTION": 15.40892741,
    "ECCENTRICITY": 0.0009858,
    "INCLINATION": 34.9483,
    "RA_OF_ASC_NODE": 112.2021,
    "ARG_OF_PERICENTER": 187.4255,
    "MEAN_ANOMALY": 172.6319,
    "EPHEMERIS_TYPE": 0,
    "CLASSIFICATION_TYPE": "U",
    "NORAD_CAT_ID": 41890,
    "ELEMENT_SET_NO": 999,
    "REV_AT_EPOCH": 46354,
    "BSTAR": 0.00047158,
    "MEAN_MOTION_DOT": 0.00019976,
    "MEAN_MOTION_DDOT": 0
  },
  {
    "OBJECT_NAME": "CYGFM03",
    "OBJECT_ID": "2016-078H",
    "EPOCH": "2025-04-21T10:06:45.935136",
    "MEAN_MOTION": 15.40687745,
    "ECCENTRICITY": 0.0008503,
    "INCLINATION": 34.9437,
    "RA_OF_ASC_NODE": 113.743,
    "ARG_OF_PERICENTER": 174.0205,
    "MEAN_ANOMALY": 186.0617,
    "EPHEMERIS_TYPE": 0,
    "CLASSIFICATION_TYPE": "U",
    "NORAD_CAT_ID": 41891,
    "ELEMENT_SET_NO": 999,
    "REV_AT_EPOCH": 46352,
    "BSTAR": 0.00046468,
    "MEAN_MOTION_DOT": 0.0001954,
    "MEAN_MOTION_DDOT": 0
  },
  {
    "OBJECT_NAME": "FENGYUN 3D",
    "OBJECT_ID": "2017-072A",
    "EPOCH": "2025-04-22T04:22:12.792000",
    "MEAN_MOTION": 14.1961236,
    "ECCENTRICITY": 0.0001879,
    "INCLINATION": 98.9582,
    "RA_OF_ASC_NODE": 75.4287,
    "ARG_OF_PERICENTER": 137.6341,
    "MEAN_ANOMALY": 222.498,
    "EPHEMERIS_TYPE": 0,
    "CLASSIFICATION_TYPE": "U",
    "NORAD_CAT_ID": 43010,
    "ELEMENT_SET_NO": 999,
    "REV_AT_EPOCH": 38525,
    "BSTAR": 0.0001324,
    "MEAN_MOTION_DOT": 0.00000234,
    "MEAN_MOTION_DDOT": 0
  },
  {
    "OBJECT_NAME": "NOAA 20 (JPSS-1)",
    "OBJECT_ID": "2017-073A",
    "EPOCH": "2025-04-22T03:12:47.214720",
    "MEAN_MOTION": 14.1952856,
    "ECCENTRICITY": 0.0002223,
    "INCLINATION": 98.7387,
    "RA_OF_ASC_NODE": 51.3412,
    "ARG_OF_PERICENTER": 77.3742,
    "MEAN_ANOMALY": 282.7683,
    "EPHEMERIS_TYPE": 0,
    "CLASSIFICATION_TYPE": "U",
    "NORAD_CAT_ID": 43013,
    "ELEMENT_SET_NO": 999,
    "REV_AT_EPOCH": 38473,
    "BSTAR": 0.00011179,
    "MEAN_MOTION_DOT": 0.00000192,
    "MEAN_MOTION_DDOT": 0
  },
  {
    "OBJECT_NAME": "GOES 17",
    "OBJECT_ID": "2018-022A",
    "EPOCH": "2025-04-21T20:50:31.814592",
    "MEAN_MOTION": 1.00272012,
    "ECCENTRICITY": 0.0002516,
    "INCLINATION": 0.0175,
    "RA_OF_ASC_NODE": 321.5983,
    "ARG_OF_PERICENTER": 127.3935,
    "MEAN_ANOMALY": 329.4513,
    "EPHEMERIS_TYPE": 0,
    "CLASSIFICATION_TYPE": "U",
    "NORAD_CAT_ID": 43226,
    "ELEMENT_SET_NO": 999,
    "REV_AT_EPOCH": 2619,
    "BSTAR": 0,
    "MEAN_MOTION_DOT": -9e-7,
    "MEAN_MOTION_DDOT": 0
  },
  {
    "OBJECT_NAME": "FENGYUN 2H",
    "OBJECT_ID": "2018-050A",
    "EPOCH": "2025-04-21T21:44:15.833184",
    "MEAN_MOTION": 1.00271994,
    "ECCENTRICITY": 0.0000292,
    "INCLINATION": 1.9436,
    "RA_OF_ASC_NODE": 84.0036,
    "ARG_OF_PERICENTER": 135.6683,
    "MEAN_ANOMALY": 35.9726,
    "EPHEMERIS_TYPE": 0,
    "CLASSIFICATION_TYPE": "U",
    "NORAD_CAT_ID": 43491,
    "ELEMENT_SET_NO": 999,
    "REV_AT_EPOCH": 2521,
    "BSTAR": 0,
    "MEAN_MOTION_DOT": -0.00000126,
    "MEAN_MOTION_DDOT": 0
  },
  {
    "OBJECT_NAME": "METOP-C",
    "OBJECT_ID": "2018-087A",
    "EPOCH": "2025-04-22T03:30:54.199296",
    "MEAN_MOTION": 14.21517694,
    "ECCENTRICITY": 0.0000145,
    "INCLINATION": 98.6773,
    "RA_OF_ASC_NODE": 173.0998,
    "ARG_OF_PERICENTER": 12.3156,
    "MEAN_ANOMALY": 347.8025,
    "EPHEMERIS_TYPE": 0,
    "CLASSIFICATION_TYPE": "U",
    "NORAD_CAT_ID": 43689,
    "ELEMENT_SET_NO": 999,
    "REV_AT_EPOCH": 33501,
    "BSTAR": 0.00013633,
    "MEAN_MOTION_DOT": 0.00000255,
    "MEAN_MOTION_DDOT": 0
  },
  {
    "OBJECT_NAME": "GEO-KOMPSAT-2A",
    "OBJECT_ID": "2018-100A",
    "EPOCH": "2025-04-22T04:14:38.567328",
    "MEAN_MOTION": 1.00269569,
    "ECCENTRICITY": 0.0002346,
    "INCLINATION": 0.0504,
    "RA_OF_ASC_NODE": 65.5962,
    "ARG_OF_PERICENTER": 8.6014,
    "MEAN_ANOMALY": 328.2043,
    "EPHEMERIS_TYPE": 0,
    "CLASSIFICATION_TYPE": "U",
    "NORAD_CAT_ID": 43823,
    "ELEMENT_SET_NO": 999,
    "REV_AT_EPOCH": 2344,
    "BSTAR": 0,
    "MEAN_MOTION_DOT": -0.00000341,
    "MEAN_MOTION_DDOT": 0
  },
  {
    "OBJECT_NAME": "METEOR-M2 2",
    "OBJECT_ID": "2019-038A",
    "EPOCH": "2025-04-22T05:35:32.970336",
    "MEAN_MOTION": 14.24190666,
    "ECCENTRICITY": 0.0002017,
    "INCLINATION": 98.8715,
    "RA_OF_ASC_NODE": 89.4476,
    "ARG_OF_PERICENTER": 120.7236,
    "MEAN_ANOMALY": 239.4141,
    "EPHEMERIS_TYPE": 0,
    "CLASSIFICATION_TYPE": "U",
    "NORAD_CAT_ID": 44387,
    "ELEMENT_SET_NO": 999,
    "REV_AT_EPOCH": 30137,
    "BSTAR": 0.0001272,
    "MEAN_MOTION_DOT": 0.00000248,
    "MEAN_MOTION_DDOT": 0
  },
  {
    "OBJECT_NAME": "ARKTIKA-M 1",
    "OBJECT_ID": "2021-016A",
    "EPOCH": "2025-04-21T07:16:49.677600",
    "MEAN_MOTION": 2.00605135,
    "ECCENTRICITY": 0.7080173,
    "INCLINATION": 63.1438,
    "RA_OF_ASC_NODE": 114.9141,
    "ARG_OF_PERICENTER": 268.563,
    "MEAN_ANOMALY": 16.8356,
    "EPHEMERIS_TYPE": 0,
    "CLASSIFICATION_TYPE": "U",
    "NORAD_CAT_ID": 47719,
    "ELEMENT_SET_NO": 999,
    "REV_AT_EPOCH": 3032,
    "BSTAR": 0,
    "MEAN_MOTION_DOT": 0.00000107,
    "MEAN_MOTION_DDOT": 0
  },
  {
    "OBJECT_NAME": "FENGYUN 3E",
    "OBJECT_ID": "2021-062A",
    "EPOCH": "2025-04-22T03:41:45.177504",
    "MEAN_MOTION": 14.19859946,
    "ECCENTRICITY": 0.0001163,
    "INCLINATION": 98.7431,
    "RA_OF_ASC_NODE": 115.4701,
    "ARG_OF_PERICENTER": 175.6905,
    "MEAN_ANOMALY": 184.4282,
    "EPHEMERIS_TYPE": 0,
    "CLASSIFICATION_TYPE": "U",
    "NORAD_CAT_ID": 49008,
    "ELEMENT_SET_NO": 999,
    "REV_AT_EPOCH": 19683,
    "BSTAR": 0.000049262,
    "MEAN_MOTION_DOT": 6.1e-7,
    "MEAN_MOTION_DDOT": 0
  }
]