CYGFM02                 
1 41886U 16078C   25111.43607318  .00022836  00000+0  52379-3 0  9990
2 41886  34.9444 113.6009 0010878 174.1818 185.9029 15.41724545463635
CYGFM01                 
1 41887U 16078D   25112.16145773  .00021154  00000+0  52181-3 0  9997
2 41887  34.9437 131.9130 0009099 153.4706 206.6480 15.39566369463564
CYGFM08                 
1 41888U 16078E   25111.46177439  .00021463  00000+0  51505-3 0  9996
2 41888  34.9465 121.6647 0011407 169.4169 190.6792 15.40372436463549
CYGFM07                 
1 41890U 16078G   25111.42296203  .00019976  00000+0  47158-3 0  9991
2 41890  34.9483 112.2021 0009858 187.4255 172.6319 15.40892741463548
CYGFM03                 
1 41891U 16078H   25111.42136499  .00019540  00000+0  46468-3 0  9992
2 41891  34.9437 113.7430 0008503 174.0205 186.0617 15.40687745463525
FENGYUN 3D              
1 43010U 17072A   25112.18209250  .00000234  00000+0  13240-3 0  9994
2 43010  98.9582  75.4287 0001879 137.6341 222.4980 14.19612360385257
NOAA 20 (JPSS-1)        
1 43013U 17073A   25112.13387980  .00000192  00000+0  11179-3 0  9992
2 43013  98.7387  51.3412 0002223  77.3742 282.7683 14.19528560384732
GOES 17                 
1 43226U 18022A   25111.86842378 -.00000090  00000+0  00000+0 0  9994
2 43226   0.0175 321.5983 0002516 127.3935 329.4513  1.00272012 26197
FENGYUN 2H              
1 43491U 18050A   25111.90573881 -.00000126  00000+0  00000+0 0  9994
2 43491   1.9436  84.0036 0000292 135.6683  35.9726  1.00271994 25217
METOP-C                 
1 43689U 18087A   25112.14646064  .00000255  00000+0  13633-3 0  9996
2 43689  98.6773 173.0998 0000145  12.3156 347.8025 14.21517694335018
GEO-KOMPSAT-2A          
1 43823U 18100A   25112.17683527 -.00000341  00000+0  00000+0 0  9997
2 43823   0.0504  65.5962 0002346   8.6014 328.2043  1.00269569 23441
METEOR-M2 2             
1 44387U 19038A   25112.23302049  .00000248  00000+0  12720-3 0  9999
2 44387  98.8715  89.4476 0002017 120.7236 239.4141 14.24190666301372
ARKTIKA-M 1             
1 47719U 21016A   25111.30335275  .00000107  00000+0  00000+0 0  9992
2 47719  63.1438 114.9141 7080173 268.5630  16.8356  2.00605135 30321
FENGYUN 3E              
1 49008U 21062A   25112.15399511  .00000061  00000+0  49262-4 0  9990
2 49008  98.7431 115.4701 0001163 175.6905 184.4282 14.19859946196830
